{
  "type": "FeatureCollection",
  "features": [
    {
      "type": "Feature",
      "properties": {
        "norad_id": 37238,
        "name": "INTELSAT 17 (IS-17)",
        "group": "intelsat",
        "lat": 0.006536268093021622,
        "lon": 63.68555956476479,
        "alt_km": 35792.639185859756,
        "timestamp": "2025-12-27T17:24:57.061353+00:00",
        "meta_object_name": "INTELSAT 17 (IS-17)",
        "meta_object_id": "2010-065B",
        "meta_epoch": "2025-12-27T11:36:13.351104",
        "meta_mean_motion": 1.00272167,
        "meta_eccentricity": 0.0002966,
        "meta_inclination": 0.0322,
        "meta_ra_of_asc_node": 75.0403,
        "meta_arg_of_pericenter": 226.6374,
        "meta_mean_anomaly": 34.5652,
        "meta_ephemeris_type": 0,
        "meta_classification_type": "U",
        "meta_norad_cat_id": 37238,
        "meta_element_set_no": 999,
        "meta_rev_at_epoch": 5152,
        "meta_bstar": 0,
        "meta_mean_motion_dot": 0,
        "meta_mean_motion_ddot": 0,
        "tle_line1": "1 37238U 10065B   25361.48348786  .00000000  00000+0  00000+0 0  9998",
        "tle_line2": "2 37238   0.0322  75.0403 0002966 226.6374  34.5652  1.00272167 51528"
      },
      "geometry": {
        "type": "Point",
        "coordinates": [
          63.68555956476479,
          0.006536268093021622
        ]
      }
    },
    {
      "type": "Feature",
      "properties": {
        "norad_id": 37392,
        "name": "INTELSAT 28 (IS-28)",
        "group": "intelsat",
        "lat": -1.2047671523542423,
        "lon": -33.99503588662283,
        "alt_km": 35776.16872745303,
        "timestamp": "2025-12-27T17:24:57.061365+00:00",
        "meta_object_name": "INTELSAT 28 (IS-28)",
        "meta_object_id": "2011-016A",
        "meta_epoch": "2025-12-27T11:08:16.029024",
        "meta_mean_motion": 1.00270951,
        "meta_eccentricity": 0.0003887,
        "meta_inclination": 1.3607,
        "meta_ra_of_asc_node": 84.8926,
        "meta_arg_of_pericenter": 189.9792,
        "meta_mean_anomaly": 316.6829,
        "meta_ephemeris_type": 0,
        "meta_classification_type": "U",
        "meta_norad_cat_id": 37392,
        "meta_element_set_no": 999,
        "meta_rev_at_epoch": 5156,
        "meta_bstar": 0,
        "meta_mean_motion_dot": -2.03e-06,
        "meta_mean_motion_ddot": 0,
        "tle_line1": "1 37392U 11016A   25361.46407441 -.00000203  00000+0  00000+0 0  9994",
        "tle_line2": "2 37392   1.3607  84.8926 0003887 189.9792 316.6829  1.00270951 51568"
      },
      "geometry": {
        "type": "Point",
        "coordinates": [
          -33.99503588662283,
          -1.2047671523542423
        ]
      }
    },
    {
      "type": "Feature",
      "properties": {
        "norad_id": 37834,
        "name": "INTELSAT 18 (IS-18)",
        "group": "intelsat",
        "lat": -0.007962832629186222,
        "lon": 177.6609354062373,
        "alt_km": 35789.44554833113,
        "timestamp": "2025-12-27T17:24:57.061377+00:00",
        "meta_object_name": "INTELSAT 18 (IS-18)",
        "meta_object_id": "2011-056A",
        "meta_epoch": "2025-12-27T11:28:38.823168",
        "meta_mean_motion": 1.00272052,
        "meta_eccentricity": 0.0002019,
        "meta_inclination": 0.0114,
        "meta_ra_of_asc_node": 306.9385,
        "meta_arg_of_pericenter": 344.7118,
        "meta_mean_anomaly": 156.7191,
        "meta_ephemeris_type": 0,
        "meta_classification_type": "U",
        "meta_norad_cat_id": 37834,
        "meta_element_set_no": 999,
        "meta_rev_at_epoch": 5209,
        "meta_bstar": 0,
        "meta_mean_motion_dot": 7.5e-07,
        "meta_mean_motion_ddot": 0,
        "tle_line1": "1 37834U 11056A   25361.47822712  .00000075  00000+0  00000+0 0  9998",
        "tle_line2": "2 37834   0.0114 306.9385 0002019 344.7118 156.7191  1.00272052 52092"
      },
      "geometry": {
        "type": "Point",
        "coordinates": [
          177.6609354062373,
          -0.007962832629186222
        ]
      }
    },
    {
      "type": "Feature",
      "properties": {
        "norad_id": 38098,
        "name": "INTELSAT 22 (IS-22)",
        "group": "intelsat",
        "lat": 0.022719414278665504,
        "lon": 69.78353165678253,
        "alt_km": 35791.60819037506,
        "timestamp": "2025-12-27T17:24:57.061389+00:00",
        "meta_object_name": "INTELSAT 22 (IS-22)",
        "meta_object_id": "2012-011A",
        "meta_epoch": "2025-12-27T09:55:15.521376",
        "meta_mean_motion": 1.00270718,
        "meta_eccentricity": 0.0001968,
        "meta_inclination": 0.0353,
        "meta_ra_of_asc_node": 54.9749,
        "meta_arg_of_pericenter": 245.9915,
        "meta_mean_anomaly": 16.0772,
        "meta_ephemeris_type": 0,
        "meta_classification_type": "U",
        "meta_norad_cat_id": 38098,
        "meta_element_set_no": 999,
        "meta_rev_at_epoch": 546,
        "meta_bstar": 0,
        "meta_mean_motion_dot": 0,
        "meta_mean_motion_ddot": 0,
        "tle_line1": "1 38098U 12011A   25361.41337409  .00000000  00000+0  00000+0 0  9999",
        "tle_line2": "2 38098   0.0353  54.9749 0001968 245.9915  16.0772  1.00270718  5462"
      },
      "geometry": {
        "type": "Point",
        "coordinates": [
          69.78353165678253,
          0.022719414278665504
        ]
      }
    },
    {
      "type": "Feature",
      "properties": {
        "norad_id": 38356,
        "name": "INTELSAT 19 (IS-19)",
        "group": "intelsat",
        "lat": 0.009672053242664496,
        "lon": 163.66023635530448,
        "alt_km": 35790.50889388833,
        "timestamp": "2025-12-27T17:24:57.061401+00:00",
        "meta_object_name": "INTELSAT 19 (IS-19)",
        "meta_object_id": "2012-030A",
        "meta_epoch": "2025-12-27T10:38:38.520096",
        "meta_mean_motion": 1.00271929,
        "meta_eccentricity": 0.0003069,
        "meta_inclination": 0.0092,
        "meta_ra_of_asc_node": 2.3196,
        "meta_arg_of_pericenter": 271.4758,
        "meta_mean_anomaly": 148.0498,
        "meta_ephemeris_type": 0,
        "meta_classification_type": "U",
        "meta_norad_cat_id": 38356,
        "meta_element_set_no": 999,
        "meta_rev_at_epoch": 4872,
        "meta_bstar": 0,
        "meta_mean_motion_dot": -3.4e-07,
        "meta_mean_motion_ddot": 0,
        "tle_line1": "1 38356U 12030A   25361.44350139 -.00000034  00000+0  00000+0 0  9993",
        "tle_line2": "2 38356   0.0092   2.3196 0003069 271.4758 148.0498  1.00271929 48727"
      },
      "geometry": {
        "type": "Point",
        "coordinates": [
          163.66023635530448,
          0.009672053242664496
        ]
      }
    },
    {
      "type": "Feature",
      "properties": {
        "norad_id": 38740,
        "name": "INTELSAT 20 (IS-20)",
        "group": "intelsat",
        "lat": 0.010315099358303497,
        "lon": 66.17125661056537,
        "alt_km": 35789.67627819043,
        "timestamp": "2025-12-27T17:24:57.061413+00:00",
        "meta_object_name": "INTELSAT 20 (IS-20)",
        "meta_object_id": "2012-043A",
        "meta_epoch": "2025-12-27T11:36:58.279104",
        "meta_mean_motion": 1.00271103,
        "meta_eccentricity": 0.0001644,
        "meta_inclination": 0.0146,
        "meta_ra_of_asc_node": 67.542,
        "meta_arg_of_pericenter": 118.2059,
        "meta_mean_anomaly": 153.2145,
        "meta_ephemeris_type": 0,
        "meta_classification_type": "U",
        "meta_norad_cat_id": 38740,
        "meta_element_set_no": 999,
        "meta_rev_at_epoch": 4902,
        "meta_bstar": 0,
        "meta_mean_motion_dot": -2e-08,
        "meta_mean_motion_ddot": 0,
        "tle_line1": "1 38740U 12043A   25361.48400786 -.00000002  00000+0  00000+0 0  9997",
        "tle_line2": "2 38740   0.0146  67.5420 0001644 118.2059 153.2145  1.00271103 49021"
      },
      "geometry": {
        "type": "Point",
        "coordinates": [
          66.17125661056537,
          0.010315099358303497
        ]
      }
    },
    {
      "type": "Feature",
      "properties": {
        "norad_id": 38749,
        "name": "INTELSAT 21 (IS-21)",
        "group": "intelsat",
        "lat": -0.0163373631217717,
        "lon": -60.29059120654037,
        "alt_km": 35779.07109201535,
        "timestamp": "2025-12-27T17:24:57.061425+00:00",
        "meta_object_name": "INTELSAT 21 (IS-21)",
        "meta_object_id": "2012-045A",
        "meta_epoch": "2025-12-27T11:00:46.744704",
        "meta_mean_motion": 1.00271024,
        "meta_eccentricity": 0.0001924,
        "meta_inclination": 0.008,
        "meta_ra_of_asc_node": 328.8178,
        "meta_arg_of_pericenter": 303.9006,
        "meta_mean_anomaly": 290.6832,
        "meta_ephemeris_type": 0,
        "meta_classification_type": "U",
        "meta_norad_cat_id": 38749,
        "meta_element_set_no": 999,
        "meta_rev_at_epoch": 4880,
        "meta_bstar": 0,
        "meta_mean_motion_dot": -2.62e-06,
        "meta_mean_motion_ddot": 0,
        "tle_line1": "1 38749U 12045A   25361.45887436 -.00000262  00000+0  00000+0 0  9994",
        "tle_line2": "2 38749   0.0080 328.8178 0001924 303.9006 290.6832  1.00271024 48802"
      },
      "geometry": {
        "type": "Point",
        "coordinates": [
          -60.29059120654037,
          -0.0163373631217717
        ]
      }
    }
  ]
}